******** Week 937 almanac for PRN-40 ********
ID:                         40
Health:                     000
Eccentricity:               3.3464431763E-003
Time of Applicability(s):  516096.0000
Orbital Inclination(rad):   0.0416931184
Rate of Right Ascen(r/s):  -1.5886376000E-009
SQRT(A)  (m 1/2):           6493.980469
Right Ascen at Week(rad):  -2.7016532550E+000
Argument of Perigee(rad):  -3.034312868
Mean Anom(rad):             1.4105530090E+000
Af0(s):                    -4.8637390000E-005
Af1(s/s):                   0.0000000000E+000
week:                        937

******** Week 937 almanac for PRN-41 ********
ID:                         41
Health:                     000
Eccentricity:               1.5220642090E-003
Time of Applicability(s):  516096.0000
Orbital Inclination(rad):   0.0317102591
Rate of Right Ascen(r/s):  -6.3545504100E-009
SQRT(A)  (m 1/2):           5282.589844
Right Ascen at Week(rad):   1.3310841200E-001
Argument of Perigee(rad):  -1.497417292
Mean Anom(rad):             1.0126434110E+000
Af0(s):                    -8.7451930000E-004
Af1(s/s):                  -3.6379800000E-012
week:                        937

******** Week 937 almanac for PRN-42 ********
ID:                         42
Health:                     000
Eccentricity:               1.2841224670E-003
Time of Applicability(s):  516096.0000
Orbital Inclination(rad):   0.0317342275
Rate of Right Ascen(r/s):  -6.3545504100E-009
SQRT(A)  (m 1/2):           5282.589844
Right Ascen at Week(rad):   1.3368552700E-001
Argument of Perigee(rad):  -1.234269554
Mean Anom(rad):             2.3162765350E+000
Af0(s):                    -4.7683720000E-004
Af1(s/s):                   7.2759600000E-012
week:                        937

******** Week 937 almanac for PRN-43 ********
ID:                         43
Health:                     000
Eccentricity:               4.6253204346E-004
Time of Applicability(s):  516096.0000
Orbital Inclination(rad):   0.0114029900
Rate of Right Ascen(r/s):  -7.1545837300E-009
SQRT(A)  (m 1/2):           5282.568359
Right Ascen at Week(rad):  -1.9875488710E+000
Argument of Perigee(rad):   0.349198592
Mean Anom(rad):             2.0723567370E+000
Af0(s):                     5.3405760000E-005
Af1(s/s):                   0.0000000000E+000
week:                        937

******** Week 937 almanac for PRN-44 ********
ID:                         44
Health:                     000
Eccentricity:               6.7377090454E-004
Time of Applicability(s):  512000.0000
Orbital Inclination(rad):   0.0118643827
Rate of Right Ascen(r/s):  -7.1545837300E-009
SQRT(A)  (m 1/2):           5282.573242
Right Ascen at Week(rad):  -1.9871657510E+000
Argument of Perigee(rad):   0.416377289
Mean Anom(rad):             2.9751613560E+000
Af0(s):                     3.3092500000E-004
Af1(s/s):                   1.0913900000E-011
week:                        937

******** Week 937 almanac for PRN-45 ********
ID:                         45
Health:                     000
Eccentricity:               6.2561035156E-004
Time of Applicability(s):  512000.0000
Orbital Inclination(rad):   0.0077537935
Rate of Right Ascen(r/s):  -6.7888542100E-009
SQRT(A)  (m 1/2):           5282.558105
Right Ascen at Week(rad):   2.2337100940E+000
Argument of Perigee(rad):   0.497731825
Mean Anom(rad):            -4.5107499000E-001
Af0(s):                    -5.7220460000E-005
Af1(s/s):                  -3.6379800000E-012
week:                        937

******** Week 937 almanac for PRN-46 ********
ID:                         46
Health:                     000
Eccentricity:               9.4366073608E-004
Time of Applicability(s):  512000.0000
Orbital Inclination(rad):   0.0077777620
Rate of Right Ascen(r/s):  -6.7888542100E-009
SQRT(A)  (m 1/2):           5282.561035
Right Ascen at Week(rad):   2.2342550020E+000
Argument of Perigee(rad):   0.407966235
Mean Anom(rad):             1.1742147310E+000
Af0(s):                    -1.0967250000E-004
Af1(s/s):                  -3.6379800000E-012
week:                        937

******** Week 937 almanac for PRN-05 ********
ID:                         05
Health:                     000
Eccentricity:               9.3889236450E-004
Time of Applicability(s):   86016.0000
Orbital Inclination(rad):   0.0348441339
Rate of Right Ascen(r/s):   1.6800699800E-009
SQRT(A)  (m 1/2):           6493.493164
Right Ascen at Week(rad):  -3.9871703500E-001
Argument of Perigee(rad):  -2.592012952
Mean Anom(rad):            -2.2782176330E+000
Af0(s):                     2.3078920000E-004
Af1(s/s):                  -6.1845600000E-011
week:                        937

******** Week 937 almanac for PRN-56 ********
ID:                         56
Health:                     000
Eccentricity:               4.6024322510E-003
Time of Applicability(s):   94208.0000
Orbital Inclination(rad):  -0.0281509443
Rate of Right Ascen(r/s):  -2.7429714000E-009
SQRT(A)  (m 1/2):           6493.225586
Right Ascen at Week(rad):  -2.6700501050E+000
Argument of Perigee(rad):  -2.960955930
Mean Anom(rad):             1.6172280830E+000
Af0(s):                     4.1580200000E-004
Af1(s/s):                   3.6379800000E-012
week:                        937

******** Week 937 almanac for PRN-57 ********
ID:                         57
Health:                     000
Eccentricity:               4.6539306641E-004
Time of Applicability(s):   94208.0000
Orbital Inclination(rad):   0.0337775379
Rate of Right Ascen(r/s):  -6.7545670700E-009
SQRT(A)  (m 1/2):           5282.583984
Right Ascen at Week(rad):  -1.1289896370E+000
Argument of Perigee(rad):  -1.011672688
Mean Anom(rad):            -1.3079508200E-001
Af0(s):                     4.1580200000E-004
Af1(s/s):                   3.6379800000E-012
week:                        937

******** Week 937 almanac for PRN-58 ********
ID:                         58
Health:                     000
Eccentricity:               6.9904327393E-004
Time of Applicability(s):   98304.0000
Orbital Inclination(rad):   0.0324652653
Rate of Right Ascen(r/s):  -7.0745804000E-009
SQRT(A)  (m 1/2):           5282.567871
Right Ascen at Week(rad):   2.0974157510E+000
Argument of Perigee(rad):   0.915884277
Mean Anom(rad):             7.9508179200E-001
Af0(s):                    -9.7656250000E-004
Af1(s/s):                  -1.8917500000E-010
week:                        937

******** Week 937 almanac for PRN-59 ********
ID:                         59
Health:                     000
Eccentricity:               1.1205673218E-004
Time of Applicability(s):  512000.0000
Orbital Inclination(rad):   0.0308114422
Rate of Right Ascen(r/s):  -1.4743471300E-009
SQRT(A)  (m 1/2):           6493.337402
Right Ascen at Week(rad):   5.4691133900E-001
Argument of Perigee(rad):   0.435499243
Mean Anom(rad):             1.0990054800E+000
Af0(s):                    -9.5367430000E-007
Af1(s/s):                   0.0000000000E+000
week:                        937

******** Week 937 almanac for PRN-06 ********
ID:                         06
Health:                     000
Eccentricity:               3.8170814514E-003
Time of Applicability(s):  516096.0000
Orbital Inclination(rad):   0.0031398669
Rate of Right Ascen(r/s):  -2.0800866400E-009
SQRT(A)  (m 1/2):           6493.180176
Right Ascen at Week(rad):   1.4977371210E+000
Argument of Perigee(rad):  -2.982163139
Mean Anom(rad):            -2.9687273250E+000
Af0(s):                     2.2220610000E-004
Af1(s/s):                   2.1827900000E-011
week:                        937

******** Week 937 almanac for PRN-60 ********
ID:                         60
Health:                     000
Eccentricity:               3.5810470581E-004
Time of Applicability(s):  512000.0000
Orbital Inclination(rad):   0.0375945135
Rate of Right Ascen(r/s):   4.8344870900E-009
SQRT(A)  (m 1/2):           6493.528320
Right Ascen at Week(rad):  -1.1098429650E+000
Argument of Perigee(rad):  -2.019629892
Mean Anom(rad):            -2.1205456800E+000
Af0(s):                     0.0000000000E+000
Af1(s/s):                   0.0000000000E+000
week:                        937

******** Week 937 almanac for PRN-61 ********
ID:                         61
Health:                     000
Eccentricity:               9.8180770874E-004
Time of Applicability(s):  512000.0000
Orbital Inclination(rad):   0.0106180233
Rate of Right Ascen(r/s):   2.8001166400E-009
SQRT(A)  (m 1/2):           6493.519043
Right Ascen at Week(rad):  -1.3170535840E+000
Argument of Perigee(rad):  -1.009389319
Mean Anom(rad):            -2.3902083420E+000
Af0(s):                     9.5367430000E-007
Af1(s/s):                   0.0000000000E+000
week:                        937

******** Week 937 almanac for PRN-62 ********
ID:                         62
Health:                     000
Eccentricity:               3.4427642822E-004
Time of Applicability(s):  512000.0000
Orbital Inclination(rad):   0.0448030248
Rate of Right Ascen(r/s):   2.1486609300E-009
SQRT(A)  (m 1/2):           6493.429199
Right Ascen at Week(rad):  -2.7309883910E+000
Argument of Perigee(rad):  -2.113946117
Mean Anom(rad):             9.9156390800E-001
Af0(s):                     0.0000000000E+000
Af1(s/s):                   0.0000000000E+000
week:                        937

